NORAD_CAT_ID,OBJECT_NAME,OBJECT_TYPE,EPOCH,MEAN_MOTION,ECCENTRICITY,INCLINATION,RA_OF_ASC_NODE,ARG_OF_PERICENTER,MEAN_ANOMALY,BSTAR,MEAN_MOTION_DOT,MEAN_MOTION_DDOT,TLE_LINE0,TLE_LINE1,TLE_LINE2,SEMIMAJOR_AXIS,PERIOD,APOGEE,PERIGEE,DECAYED
52581.0,STARLINK-3915,PAYLOAD,2023-10-01 20:54:42,15.08847103,0.0001265,53.2156,153.6684,101.1027,259.0107,0.00018901,2.722e-05,0.0,0 STARLINK-3915,1 52581U 22051AX  23274.87132133  .00002722  00000-0  18901-3 0  9992,2 52581  53.2156 153.6684 0001265 101.1027 259.0107 15.08847103 77256,6917.859,95.437,540.599,538.849,0.0
52581.0,STARLINK-3915,PAYLOAD,2023-10-01 22:30:05,15.0885099,0.0001331,53.2149,153.3712,101.8327,258.2814,0.00027973,4.168e-05,0.0,0 STARLINK-3915,1 52581U 22051AX  23274.93756046  .00004168  00000-0  27973-3 0  9999,2 52581  53.2149 153.3712 0001331 101.8327 258.2814 15.08850990 77334,6917.847,95.437,540.633,538.791,0.0
52581.0,STARLINK-3915,PAYLOAD,2023-10-02 09:37:47,15.08843974,0.0001475,53.2153,151.2894,76.21,283.9056,0.00025278,3.738e-05,0.0,0 STARLINK-3915,1 52581U 22051AX  23275.40124351  .00003738  00000-0  25278-3 0  9998,2 52581  53.2153 151.2894 0001475  76.2100 283.9056 15.08843974 77405,6917.868,95.437,540.754,538.713,0.0
52581.0,STARLINK-3915,PAYLOAD,2023-10-02 20:45:29,15.08840923,0.0001438,53.2145,149.2055,112.1739,247.9405,0.00015965,2.254e-05,0.0,0 STARLINK-3915,1 52581U 22051AX  23275.86492517  .00002254  00000-0  15965-3 0  9994,2 52581  53.2145 149.2055 0001438 112.1739 247.9405 15.08840923 77408,6917.878,95.437,540.737,538.748,0.0
52581.0,STARLINK-3915,PAYLOAD,2023-10-03 12:39:21,15.08835755,0.0001231,53.2146,146.2338,87.4868,272.6265,5.1149e-05,5.26e-06,0.0,0 STARLINK-3915,1 52581U 22051AX  23276.52732841  .00000526  00000-0  51149-4 0  9990,2 52581  53.2146 146.2338 0001231  87.4868 272.6265 15.08835755 77505,6917.893,95.438,540.61,538.907,0.0
52581.0,STARLINK-3915,PAYLOAD,2023-10-03 20:36:17,15.08837572,0.0001344,53.2148,144.7475,85.9456,274.1689,5.9934e-05,6.66e-06,0.0,0 STARLINK-3915,1 52581U 22051AX  23276.85853063  .00000666  00000-0  59934-4 0  9991,2 52581  53.2148 144.7475 0001344  85.9456 274.1689 15.08837572 77622,6917.888,95.438,540.683,538.823,0.0
52581.0,STARLINK-3915,PAYLOAD,2023-10-04 01:22:26,15.08842418,0.0001294,53.2149,143.8535,100.0965,260.0173,4.3807e-05,4.09e-06,0.0,0 STARLINK-3915,1 52581U 22051AX  23277.05724610  .00000409  00000-0  43807-4 0  9996,2 52581  53.2149 143.8535 0001294 100.0965 260.0173 15.08842418 77580,6917.873,95.437,540.633,538.843,0.0
52581.0,STARLINK-3915,PAYLOAD,2023-10-04 18:51:40,15.08845198,0.0001216,53.2149,140.5825,98.1682,261.9448,0.0002966,4.436e-05,0.0,0 STARLINK-3915,1 52581U 22051AX  23277.78588469  .00004436  00000-0  29660-3 0  9990,2 52581  53.2149 140.5825 0001216  98.1682 261.9448 15.08845198 77766,6917.865,95.437,540.571,538.888,0.0
52581.0,STARLINK-3915,PAYLOAD,2023-10-04 22:02:26,15.08852739,0.0001147,53.2148,139.9915,88.2664,271.846,0.00036188,5.478e-05,0.0,0 STARLINK-3915,1 52581U 22051AX  23277.91836138  .00005478  00000-0  36188-3 0  9994,2 52581  53.2148 139.9915 0001147  88.2664 271.8460 15.08852739 77718,6917.841,95.437,540.5,538.913,0.0
52581.0,STARLINK-3915,PAYLOAD,2023-10-05 01:13:12,15.08862337,0.0001198,53.2151,139.3947,91.5551,268.5578,0.00048043,7.371e-05,0.0,0 STARLINK-3915,1 52581U 22051AX  23278.05083711  .00007371  00000-0  48043-3 0  9998,2 52581  53.2151 139.3947 0001198  91.5551 268.5578 15.08862337 77807,6917.812,95.436,540.506,538.848,0.0
52581.0,STARLINK-3915,PAYLOAD,2023-10-05 20:17:50,15.08842655,0.0002182,53.2142,135.8228,128.535,231.5838,1.4318e-05,-6e-07,0.0,0 STARLINK-3915,1 52581U 22051AX  23278.84572289 -.00000060  00000-0  14318-4 0  9996,2 52581  53.2142 135.8228 0002182 128.5350 231.5838 15.08842655 77925,6917.872,95.437,541.247,538.228,0.0
52581.0,STARLINK-3915,PAYLOAD,2023-10-06 07:25:32,15.08834619,0.0001317,53.2148,133.7437,94.6868,265.4274,-9.2637e-06,-4.35e-06,0.0,0 STARLINK-3915,1 52581U 22051AX  23279.30940908 -.00000435  00000-0 -92637-5 0  9993,2 52581  53.2148 133.7437 0001317  94.6868 265.4274 15.08834619 77994,6917.897,95.438,540.673,538.851,0.0
52581.0,STARLINK-3915,PAYLOAD,2023-10-06 13:47:05,15.08835089,0.0001303,53.2142,132.557,96.9706,263.1434,7.0444e-05,8.33e-06,0.0,0 STARLINK-3915,1 52581U 22051AX  23279.57437077  .00000833  00000-0  70444-4 0  9991,2 52581  53.2142 132.5570 0001303  96.9706 263.1434 15.08835089 77966,6917.895,95.438,540.662,538.859,0.0
52581.0,STARLINK-3915,PAYLOAD,2023-10-06 21:44:01,15.08838481,0.0001309,53.2147,131.0698,91.4174,268.6968,0.00021257,3.097e-05,0.0,0 STARLINK-3915,1 52581U 22051AX  23279.90557193  .00003097  00000-0  21257-3 0  9992,2 52581  53.2147 131.0698 0001309  91.4174 268.6968 15.08838481 78019,6917.885,95.438,540.656,538.844,0.0
52581.0,STARLINK-3915,PAYLOAD,2023-10-07 13:37:52,15.08841502,0.0001368,53.2145,128.0958,88.7973,271.3176,0.00033047,4.976e-05,0.0,0 STARLINK-3915,1 52581U 22051AX  23280.56797396  .00004976  00000-0  33047-3 0  9994,2 52581  53.2145 128.0958 0001368  88.7973 271.3176 15.08841502 78114,6917.876,95.437,540.687,538.794,0.0
52581.0,STARLINK-3915,PAYLOAD,2023-10-07 21:34:48,15.08845318,0.0001363,53.2148,126.6087,87.0978,273.017,0.00036269,5.49e-05,0.0,0 STARLINK-3915,1 52581U 22051AX  23280.89917333  .00005490  00000-0  36269-3 0  9996,2 52581  53.2148 126.6087 0001363  87.0978 273.0170 15.08845318 78231,6917.864,95.437,540.672,538.786,0.0
52581.0,STARLINK-3915,PAYLOAD,2023-10-08 07:07:07,15.0884651,0.0001371,53.2147,124.8245,86.1317,273.9832,0.00030627,4.591e-05,0.0,0 STARLINK-3915,1 52581U 22051AX  23281.29661250  .00004591  00000-0  30627-3 0  9998,2 52581  53.2147 124.8245 0001371  86.1317 273.9832 15.08846510 78220,6917.86,95.437,540.674,538.777,0.0
52581.0,STARLINK-3915,PAYLOAD,2023-10-08 19:50:12,15.08850731,0.0001316,53.2149,122.4448,91.7997,268.3145,0.00029798,4.459e-05,0.0,0 STARLINK-3915,1 52581U 22051AX  23281.82652939  .00004459  00000-0  29798-3 0  9991,2 52581  53.2149 122.4448 0001316  91.7997 268.3145 15.08850731 78300,6917.848,95.437,540.623,538.802,0.0
52581.0,STARLINK-3915,PAYLOAD,2023-10-08 23:00:58,15.08856224,0.000137,53.2151,121.8497,92.4078,267.7071,0.00036278,5.493e-05,0.0,0 STARLINK-3915,1 52581U 22051AX  23281.95900671  .00005493  00000-0  36278-3 0  9994,2 52581  53.2151 121.8497 0001370  92.4078 267.7071 15.08856224 78391,6917.831,95.437,540.644,538.748,0.0
52581.0,STARLINK-3915,PAYLOAD,2023-10-09 06:57:54,15.0883852,0.000211,53.215,120.3634,82.1268,277.9963,4.4424e-05,4.19e-06,0.0,0 STARLINK-3915,1 52581U 22051AX  23282.29021635  .00000419  00000-0  44424-4 0  9992,2 52581  53.2150 120.3634 0002110  82.1268 277.9963 15.08838520 78445,6917.885,95.438,541.21,538.29,0.0
52581.0,STARLINK-3915,PAYLOAD,2023-10-09 13:19:27,15.08839577,0.0001688,53.2153,119.1734,83.3939,276.7245,3.5396e-05,2.75e-06,0.0,0 STARLINK-3915,1 52581U 22051AX  23282.55517445  .00000275  00000-0  35396-4 0  9998,2 52581  53.2153 119.1734 0001688  83.3939 276.7245 15.08839577 78412,6917.882,95.438,540.914,538.579,0.0
52581.0,STARLINK-3915,PAYLOAD,2023-10-09 19:40:59,15.08838129,0.0001437,53.2152,117.9841,87.4019,272.7138,2.9445e-05,1.81e-06,0.0,0 STARLINK-3915,1 52581U 22051AX  23282.82013496  .00000181  00000-0  29445-4 0  9999,2 52581  53.2152 117.9841 0001437  87.4019 272.7138 15.08838129 78455,6917.886,95.438,540.745,538.757,0.0
52581.0,STARLINK-3915,PAYLOAD,2023-10-10 13:10:14,15.08843145,0.0001405,53.2163,114.7137,83.4886,276.6266,0.00018813,2.708e-05,0.0,0 STARLINK-3915,1 52581U 22051AX  23283.54877408  .00002708  00000-0  18813-3 0  9993,2 52581  53.2163 114.7137 0001405  83.4886 276.6266 15.08843145 78632,6917.871,95.437,540.708,538.764,0.0
52581.0,STARLINK-3915,PAYLOAD,2023-10-10 19:31:46,15.08847689,0.0001441,53.2167,113.5249,79.9231,280.1923,0.00037473,5.682e-05,0.0,0 STARLINK-3915,1 52581U 22051AX  23283.81373300  .00005682  00000-0  37473-3 0  9992,2 52581  53.2167 113.5249 0001441  79.9231 280.1923 15.08847689 78605,6917.857,95.437,540.719,538.725,0.0
52581.0,STARLINK-3915,PAYLOAD,2023-10-11 13:01:01,15.08840113,0.000141,53.2162,110.2533,85.9147,274.2006,0.00012334,1.676e-05,0.0,0 STARLINK-3915,1 52581U 22051AX  23284.54237555  .00001676  00000-0  12334-3 0  9992,2 52581  53.2162 110.2533 0001410  85.9147 274.2006 15.08840113 78789,6917.88,95.438,540.72,538.77,0.0
52581.0,STARLINK-3915,PAYLOAD,2023-10-12 12:51:47,15.08855735,0.0001127,53.2149,105.7888,61.7621,298.3485,0.00042302,6.454e-05,0.0,0 STARLINK-3915,1 52581U 22051AX  23285.53596658  .00006454  00000-0  42302-3 0  9991,2 52581  53.2149 105.7888 0001127  61.7621 298.3485 15.08855735 78863,6917.832,95.437,540.477,538.918,0.0
52581.0,STARLINK-3915,PAYLOAD,2023-10-12 19:13:19,15.08880059,0.0001212,53.2153,104.6027,81.9433,278.1696,0.0013715,0.00021631,0.0,0 STARLINK-3915,1 52581U 22051AX  23285.80092340  .00021631  00000-0  13715-2 0  9999,2 52581  53.2153 104.6027 0001212  81.9433 278.1696 15.08880059 78970,6917.758,95.435,540.461,538.785,0.0
52581.0,STARLINK-3915,PAYLOAD,2023-10-13 04:45:38,15.08864417,0.0001072,53.2149,102.8198,81.7127,278.3986,0.00038474,5.845e-05,0.0,0 STARLINK-3915,1 52581U 22051AX  23286.19836138  .00005845  00000-0  38474-3 0  9992,2 52581  53.2149 102.8198 0001072  81.7127 278.3986 15.08864417 79038,6917.806,95.436,540.412,538.929,0.0
52581.0,STARLINK-3915,PAYLOAD,2023-10-13 19:04:07,15.08840708,0.0001064,53.215,100.1423,101.5757,258.5355,0.00023084,3.388e-05,0.0,0 STARLINK-3915,1 52581U 22051AX  23286.79452627  .00003388  00000-0  23084-3 0  9996,2 52581  53.2150 100.1423 0001064 101.5757 258.5355 15.08840708 79120,6917.878,95.438,540.479,539.007,0.0
52581.0,STARLINK-3915,PAYLOAD,2023-10-13 20:39:30,15.08834005,0.0001035,53.2148,99.8453,106.8052,253.3054,0.0018357,0.00029043,0.0,0 STARLINK-3915,1 52581U 22051AX  23286.86076942  .00029043  00000-0  18357-2 0  9998,2 52581  53.2148  99.8453 0001035 106.8052 253.3054 15.08834005 79063,6917.899,95.438,540.48,539.048,0.0
